LEMUR-1                 
1 40044U 14033AL  22216.44956245  .00000323  00000+0  54134-4 0  9993
2 40044  97.6587  42.3971 0058451   5.2478 354.9332 14.74931318436958
LEMUR-2-XIAOQING        
1 41871U 16062C   22216.32430746  .00012298  00000+0  32035-3 0  9995
2 41871  51.6350 119.0927 0004721 111.2205 248.9284 15.39252768317329
LEMUR-2-SOKOLSKY        
1 41872U 16062D   22216.35875110  .00013909  00000+0  36039-3 0  9995
2 41872  51.6779 128.8789 0000878 195.0706 165.0253 15.39303568317290
LEMUR-2-ANUBHAVTHAKUR   
1 41873U 16062E   22216.23937872  .00003280  00000+0  13037-3 0  9991
2 41873  51.6784 171.9241 0008546  88.7336 271.4623 15.28176601316641
LEMUR-2-WINGO           
1 41874U 16062F   22216.13316048  .00011092  00000+0  30160-3 0  9993
2 41874  51.6476 130.5363 0009725  38.4776 321.6899 15.38007542317165
LEMUR-2-JOBANPUTRA      
1 41991U 17008AV  22215.60186038  .00008487  00000+0  26399-3 0  9992
2 41991  97.2557 276.1518 0007903  77.1399 283.0726 15.33528476303408
LEMUR-2-SPIRE-MINIONS   
1 41992U 17008AW  22215.15218110  .00011241  00000+0  30941-3 0  9990
2 41992  97.2647 280.1997 0006544  68.6264 291.5679 15.37307331303580
LEMUR-2-SATCHMO         
1 41993U 17008AX  22216.45510253  .00005898  00000+0  19016-3 0  9999
2 41993  97.2581 277.4829 0007674  72.3872 287.8208 15.32512057303565
LEMUR-2-SMITA-SHARAD    
1 41994U 17008AY  22216.17954583  .00010685  00000+0  29438-3 0  9996
2 41994  97.2637 280.9860 0006584  65.2662 294.9267 15.37291550303739
LEMUR-2-RDEATON         
1 41995U 17008AZ  22215.64179901  .00006442  00000+0  20782-3 0  9990
2 41995  97.2602 276.9062 0008594  84.9847 275.2376 15.32452140304123
LEMUR-2-TACHIKOMA       
1 41996U 17008BA  22215.41763309  .00010259  00000+0  28637-3 0  9995
2 41996  97.2679 280.4822 0007453  81.7466 278.4624 15.36888066303491
LEMUR-2-NOGUECORREIG    
1 41997U 17008BB  22216.15166455  .00010362  00000+0  28411-3 0  9992
2 41997  97.2662 281.6878 0007563  76.7132 283.4956 15.37444021303746
LEMUR-2-MIA-GRACE       
1 41998U 17008BC  22215.44821512  .00006440  00000+0  20890-3 0  9991
2 41998  97.2585 276.3080 0008556  86.6132 273.6089 15.32274183303316
LEMUR-2-ANGELA          
1 42752U 17019B   22216.47342919  .00013017  00000+0  29077-3 0  9999
2 42752  51.6357   5.7420 0006576 233.4909 126.5472 15.43847718288598
LEMUR-2-JENNYBARNA      
1 42753U 17019C   22215.63938500  .00029072  00000+0  42964-3 0  9992
2 42753  51.6304 341.8188 0005502 257.6503 102.3872 15.55066845288797
LEMUR-2-ROBMOORE        
1 42754U 17019D   22216.47352432  .00012156  00000+0  27811-3 0  9999
2 42754  51.6361   7.1954 0005836 235.0855 124.9583 15.43207165288556
LEMUR-2-SPIROVISION     
1 42755U 17019E   22216.36543255  .00028415  00000+0  42891-3 0  9993
2 42755  51.6347 338.9218 0005847 256.2534 152.7956 15.54498259288810
LEMUR-2-SHAINAJOHL      
1 42771U 17036G   22215.54652694  .00007567  00000+0  25095-3 0  9999
2 42771  97.1985 255.8338 0012735 142.3656 217.8480 15.31455962284196
LEMUR-2-XUENITERENCE    
1 42772U 17036H   22215.85824450  .00009359  00000+0  29628-3 0  9992
2 42772  97.1911 256.2775 0012129 137.9709 222.2467 15.32888893284281
LEMUR-2-LUCYBRYCE       
1 42773U 17036J   22215.54888583  .00005691  00000+0  20397-3 0  9995
2 42773  97.2020 256.0543 0012988 143.3094 216.9038 15.29037882284167
LEMUR-2-KUNGFOO         
1 42774U 17036K   22216.19316225  .00007982  00000+0  26194-3 0  9993
2 42774  97.1982 256.9101 0012290 138.2982 221.9199 15.31783338284316
LEMUR-2-LYNSEY-SYMO     
1 42779U 17036Q   22216.46113790  .00009656  00000+0  28847-3 0  9997
2 42779  97.2014 261.7042 0010526 135.4167 224.7925 15.34742826284600
LEMUR-2-LISASAURUS      
1 42780U 17036R   22215.56607747  .00009217  00000+0  30582-3 0  9991
2 42780  97.2018 257.4577 0010821 146.4599 213.7330 15.31398338284262
LEMUR-2-SAM-AMELIA      
1 42781U 17036S   22215.82441774  .00005568  00000+0  19515-3 0  9995
2 42781  97.2023 258.4596 0011382 144.5855 215.6144 15.29796643284327
LEMUR-2-MCPEAKE         
1 42782U 17036T   22216.45901793  .00007197  00000+0  23005-3 0  9997
2 42782  97.1995 260.0144 0010479 139.0639 221.1392 15.32683271284512
LEMUR-2-GREENBERG       
1 42837U 17042N   22215.82379379  .00001133  00000+0  11164-3 0  9991
2 42837  97.4243  70.8210 0012034 191.8887 168.2051 14.93811589275348
LEMUR-2-ANDIS           
1 42838U 17042P   22215.55223224  .00001288  00000+0  12619-3 0  9996
2 42838  97.4230  70.5061 0012151 192.5591 167.5328 14.93826592275301
LEMUR-2-MONSON          
1 42839U 17042Q   22216.04736778  .00000742  00000+0  75261-4 0  9992
2 42839  97.4240  70.7299 0011858 191.1356 168.9604 14.93602865275357
LEMUR-2-FURIAUS         
1 42840U 17042R   22215.56390589  .00000884  00000+0  89546-4 0  9994
2 42840  97.4279  70.6380 0012167 193.8260 166.2629 14.93210324275283
LEMUR-2-PETERG          
1 42841U 17042S   22216.47008646  .00000719  00000+0  72806-4 0  9994
2 42841  97.4300  72.5805 0011789 185.3860 174.7236 14.93766859275482
LEMUR-2-DEMBITZ         
1 42842U 17042T   22216.11212683  .00000563  00000+0  57682-4 0  9996
2 42842  97.4274  72.1058 0011841 187.6264 172.4778 14.94041513275436
LEMUR-2-ZACHARY         
1 42845U 17042W   22215.82591104  .00001391  00000+0  13300-3 0  9992
2 42845  97.4164  71.0041 0011956 189.3281 170.7720 14.94694597275436
LEMUR-2-MCCAFFERTY      
1 43123U 18004N   22216.21749959  .00012634  00000+0  34876-3 0  9991
2 43123  97.3753 295.7588 0007369 164.5632 195.5838 15.37186165253906
LEMUR-2-PETERWEBSTER    
1 43124U 18004P   22215.66926943  .00010880  00000+0  30640-3 0  9996
2 43124  97.3749 294.8455 0007428 166.6772 193.4669 15.36603220253802
LEMUR-2-BROWNCOW        
1 43125U 18004Q   22216.22339107  .00012599  00000+0  33105-3 0  9998
2 43125  97.3805 297.1705 0007273 160.0205 200.1327 15.38715428253989
LEMUR-2-DAVEWILSON      
1 43126U 18004R   22216.46366673  .00011564  00000+0  29994-3 0  9995
2 43126  97.3788 297.2273 0007139 159.0057 201.1483 15.39137422254017
LEMUR-2-MARSHALL        
1 43165U 18010C   22215.54234830  .00010728  00000+0  36298-3 0  9998
2 43165  82.9136  21.8170 0026116 162.7064 197.5073 15.30128555251680
LEMUR-2-TALLHAMN-ATC    
1 43167U 18010E   22216.15925674  .00008525  00000+0  32437-3 0  9994
2 43167  82.9174  27.5046 0020750 184.1405 175.9666 15.26394887251398
LEMUR-2-JIN-LUEN        
1 43182U 18014C   22216.31146730  .00000595  00000+0  53313-4 0  9997
2 43182  97.6416 119.2304 0012442 135.3674 224.8553 14.99429712246060
LEMUR-2-URAMCHANSOL     
1 43183U 18014D   22215.98915631  .00001384  00000+0  11776-3 0  9997
2 43183  97.6417 119.1249 0013306 140.7385 219.4806 14.99371860246025
LEMUR-2-KADI            
1 43184U 18014E   22216.30284899  .00000600  00000+0  54323-4 0  9996
2 43184  97.6443 119.3101 0013768 132.8583 227.3799 14.98983111246068
LEMUR-2-THENICKMOLO     
1 43185U 18014F   22215.66742821  .00001518  00000+0  12937-3 0  9992
2 43185  97.6433 118.9070 0014323 140.5008 219.7262 14.99146804245974
LEMUR-2-VU              
1 43558U 18046E   22216.45474973  .00017836  00000+0  32534-3 0  9994
2 43558  51.6374 289.0303 0005397 227.3186 132.7349 15.49499560226989
LEMUR-2-ALEXANDER       
1 43559U 18046F   22215.48370096  .00024972  00000+0  43096-3 0  9992
2 43559  51.6374 291.5772 0004901 239.8264 120.2240 15.50845996226648
LEMUR-2-YUASA           
1 43560U 18046G   22215.51494227  .00023308  00000+0  41541-3 0  9996
2 43560  51.6381 294.0094 0005427 246.1153 113.9268 15.49973526226834
LEMUR-2-TOMHENDERSON    
1 43561U 18046H   22216.46551336  .00017576  00000+0  34212-3 0  9994
2 43561  51.6392 292.8120 0005415 244.0142 116.0289 15.47639826226494
LEMUR-2-ZUPANSKI        
1 43695U 18088F   22215.62543678  .00005898  00000+0  20330-3 0  9995
2 43695  85.0275 281.9922 0011259 329.1726  30.8858 15.29707836207118
LEMUR-2-CHANUSIAK       
1 43697U 18088H   22216.40593738  .00006626  00000+0  22110-3 0  9994
2 43697  85.0341 281.4768 0009636 298.4701  61.5575 15.30804588207351
LEMUR-2-ORZULAK         
1 43731U 18096N   22216.46397966  .00021336  00000+0  43261-3 0  9998
2 43731  97.3627 302.0776 0012796 227.2114 132.8061 15.46317923205664
LEMUR-2-KOBYSZCZE       
1 43732U 18096P   22215.67947696  .00021101  00000+0  42272-3 0  9993
2 43732  97.3644 301.7413 0012720 226.9017 133.1170 15.46671920205567
LEMUR-2-DULY            
1 43745U 18096AC  22216.48510345  .00018018  00000+0  38007-3 0  9998
2 43745  97.3632 302.2226 0013342 225.0460 134.9708 15.45184791205682
LEMUR-2-VLADIMIR        
1 43746U 18096AD  22216.20937145  .00025776  00000+0  48464-3 0  9997
2 43746  97.3628 302.7104 0012534 226.8176 133.2028 15.48470648205716
LEMUR-2-CHRISTINAHOLT   
1 43882U 18111G   22216.16040297  .00002292  00000+0  19034-3 0  9993
2 43882  97.6694 123.0639 0013350 139.6243 220.5974 14.99680331194919
LEMUR-2-TINYKEV         
1 43883U 18111H   22215.69086313  .00002880  00000+0  23677-3 0  9991
2 43883  97.6678 122.7883 0013582 139.1279 221.0965 14.99871826196852
LEMUR-2-REMY-COLTON     
1 43884U 18111J   22215.84742033  .00001041  00000+0  88144-4 0  9996
2 43884  97.6766 123.4610 0007584 161.6708 198.4790 15.00139394194906
LEMUR-2-GUSTAVO         
1 43885U 18111K   22215.68524155  .00001937  00000+0  16165-3 0  9999
2 43885  97.6688 122.9499 0013713 146.8870 213.3214 14.99676016196853
LEMUR-2-ZO              
1 43886U 18111L   22216.07521527  .00001570  00000+0  13168-3 0  9997
2 43886  97.6686 123.6178 0013189 155.8344 204.3500 14.99756246194925
LEMUR-2-NATALIEMURRAY   
1 43887U 18111M   22216.30235888  .00002348  00000+0  19367-3 0  9997
2 43887  97.6762 124.1368 0011686 126.1678 234.0628 14.99940141196976
LEMUR-2-SARAHBETTYBOO   
1 43888U 18111N   22216.19527705  .00001074  00000+0  91122-4 0  9992
2 43888  97.6721 124.2872 0010631 164.2609 195.8947 14.99959056196961
LEMUR-2-DAISY-HARPER    
1 43889U 18111P   22216.19401797  .00001026  00000+0  87205-4 0  9999
2 43889  97.6733 124.4773 0010343 165.2271 194.9257 15.00010165196969
